{"type": "FeatureCollection", "features": [ {"type": "Feature", "properties": {"norad_id": 31715, "name": "FENGYUN 1C DEB", "group": "fengyun-1c-debris", "lat": -36.71037937076281, "lon": -164.60827622402874, "alt_km": 793.4929622017262, "timestamp": "2025-12-24T07:45:06.483625+00:00", "meta": {"OBJECT_NAME": "FENGYUN 1C DEB", "OBJECT_ID": "1999-025CDN", "EPOCH": "2025-12-22T06:19:04.023264", "MEAN_MOTION": 14.52235042, "ECCENTRICITY": 0.01870635, "INCLINATION": 99.2924, "RA_OF_ASC_NODE": 186.1002, "ARG_OF_PERICENTER": 91.1269, "MEAN_ANOMALY": 271.136, "EPHEMERIS_TYPE": 0, "CLASSIFICATION_TYPE": "U", "NORAD_CAT_ID": 31715, "ELEMENT_SET_NO": 999, "REV_AT_EPOCH": 61855, "BSTAR": 0.00074319461, "MEAN_MOTION_DOT": 3.734e-05, "MEAN_MOTION_DDOT": 0}, "tle": {"line1": "1 31715U 99025CDN 25356.26324101  .00003734  00000+0  74319-3 0  9995", "line2": "2 31715  99.2924 186.1002 0187063  91.1269 271.1360 14.52235042618558"}}, "geometry": {"type": "Point", "coordinates": [-164.60827622402874, -36.71037937076281]}}, {"type": "Feature", "properties": {"norad_id": 31716, "name": "FENGYUN 1C DEB", "group": "fengyun-1c-debris", "lat": 42.79012917132298, "lon": -111.38646551067596, "alt_km": 785.7763385323296, "timestamp": "2025-12-24T07:45:06.483635+00:00", "meta": {"OBJECT_NAME": "FENGYUN 1C DEB", "OBJECT_ID": "1999-025CDP", "EPOCH": "2025-12-23T04:53:16.834848", "MEAN_MOTION": 14.03653597, "ECCENTRICITY": 0.01310164, "INCLINATION": 98.5543, "RA_OF_ASC_NODE": 255.5691, "ARG_OF_PERICENTER": 62.0286, "MEAN_ANOMALY": 88.8596, "EPHEMERIS_TYPE": 0, "CLASSIFICATION_TYPE": "U", "NORAD_CAT_ID": 31716, "ELEMENT_SET_NO": 999, "REV_AT_EPOCH": 94266, "BSTAR": 0.0015563682, "MEAN_MOTION_DOT": 2.599e-05, "MEAN_MOTION_DDOT": 0}, "tle": {"line1": "1 31716U 99025CDP 25357.20366707  .00002599  00000+0  15564-2 0  9993", "line2": "2 31716  98.5543 255.5691 0131016  62.0286  88.8596 14.03653597942667"}}, "geometry": {"type": "Point", "coordinates": [-111.38646551067596, 42.79012917132298]}}, {"type": "Feature", "properties": {"norad_id": 31720, "name": "FENGYUN 1C DEB", "group": "fengyun-1c-debris", "lat": 23.112665631468875, "lon": 95.43561256094196, "alt_km": 628.0384529567045, "timestamp": "2025-12-24T07:45:06.483645+00:00", "meta": {"OBJECT_NAME": "FENGYUN 1C DEB", "OBJECT_ID": "1999-025CDT", "EPOCH": "2025-12-23T04:56:58.714368", "MEAN_MOTION": 14.71914634, "ECCENTRICITY": 0.01003213, "INCLINATION": 99.0491, "RA_OF_ASC_NODE": 270.2941, "ARG_OF_PERICENTER": 91.4053, "MEAN_ANOMALY": 269.8646, "EPHEMERIS_TYPE": 0, "CLASSIFICATION_TYPE": "U", "NORAD_CAT_ID": 31720, "ELEMENT_SET_NO": 999, "REV_AT_EPOCH": 98390, "BSTAR": 0.00083152432, "MEAN_MOTION_DOT": 5.575e-05, "MEAN_MOTION_DDOT": 0}, "tle": {"line1": "1 31720U 99025CDT 25357.20623512  .00005575  00000+0  83152-3 0  9994", "line2": "2 31720  99.0491 270.2941 0100321  91.4053 269.8646 14.71914634983901"}}, "geometry": {"type": "Point", "coordinates": [95.43561256094196, 23.112665631468875]}}, {"type": "Feature", "properties": {"norad_id": 31721, "name": "FENGYUN 1C DEB", "group": "fengyun-1c-debris", "lat": 65.74722666901559, "lon": -179.25851812503439, "alt_km": 800.5906269094885, "timestamp": "2025-12-24T07:45:06.483655+00:00", "meta": {"OBJECT_NAME": "FENGYUN 1C DEB", "OBJECT_ID": "1999-025CDU", "EPOCH": "2025-12-23T05:05:18.305952", "MEAN_MOTION": 13.73786903, "ECCENTRICITY": 0.03176777, "INCLINATION": 99.7822, "RA_OF_ASC_NODE": 337.0889, "ARG_OF_PERICENTER": 156.4359, "MEAN_ANOMALY": 226.5806, "EPHEMERIS_TYPE": 0, "CLASSIFICATION_TYPE": "U", "NORAD_CAT_ID": 31721, "ELEMENT_SET_NO": 999, "REV_AT_EPOCH": 67530, "BSTAR": 0.00029599041, "MEAN_MOTION_DOT": 3.53e-06, "MEAN_MOTION_DDOT": 0}, "tle": {"line1": "1 31721U 99025CDU 25357.21201743  .00000353  00000+0  29599-3 0  9998", "line2": "2 31721  99.7822 337.0889 0317677 156.4359 226.5806 13.73786903675302"}}, "geometry": {"type": "Point", "coordinates": [-179.25851812503439, 65.74722666901559]}}, {"type": "Feature", "properties": {"norad_id": 31724, "name": "FENGYUN 1C DEB", "group": "fengyun-1c-debris", "lat": -11.568465910446061, "lon": -178.10921662826834, "alt_km": 627.7670369044527, "timestamp": "2025-12-24T07:45:06.483666+00:00", "meta": {"OBJECT_NAME": "FENGYUN 1C DEB", "OBJECT_ID": "1999-025CDX", "EPOCH": "2025-12-23T17:36:33.492672", "MEAN_MOTION": 14.49304028, "ECCENTRICITY": 0.01518759, "INCLINATION": 97.8543, "RA_OF_ASC_NODE": 2.9609, "ARG_OF_PERICENTER": 208.1423, "MEAN_ANOMALY": 151.1503, "EPHEMERIS_TYPE": 0, "CLASSIFICATION_TYPE": "U", "NORAD_CAT_ID": 31724, "ELEMENT_SET_NO": 999, "REV_AT_EPOCH": 64651, "BSTAR": 0.0021805146, "MEAN_MOTION_DOT": 9.606e-05, "MEAN_MOTION_DDOT": 0}, "tle": {"line1": "1 31724U 99025CDX 25357.73372098  .00009606  00000+0  21805-2 0  9991", "line2": "2 31724  97.8543   2.9609 0151875 208.1423 151.1503 14.49304028646511"}}, "geometry": {"type": "Point", "coordinates": [-178.10921662826834, -11.568465910446061]}}, {"type": "Feature", "properties": {"norad_id": 31725, "name": "FENGYUN 1C DEB", "group": "fengyun-1c-debris", "lat": 42.39408944465922, "lon": 41.671880948366045, "alt_km": 1871.3949556010857, "timestamp": "2025-12-24T07:45:06.483687+00:00", "meta": {"OBJECT_NAME": "FENGYUN 1C DEB", "OBJECT_ID": "1999-025CDY", "EPOCH": "2025-12-17T21:05:21.230880", "MEAN_MOTION": 12.79203585, "ECCENTRICITY": 0.06944571, "INCLINATION": 99.1801, "RA_OF_ASC_NODE": 207.8945, "ARG_OF_PERICENTER": 323.3807, "MEAN_ANOMALY": 32.1667, "EPHEMERIS_TYPE": 0, "CLASSIFICATION_TYPE": "U", "NORAD_CAT_ID": 31725, "ELEMENT_SET_NO": 999, "REV_AT_EPOCH": 86547, "BSTAR": 0.0022154725, "MEAN_MOTION_DOT": 1.348e-05, "MEAN_MOTION_DDOT": 0}, "tle": {"line1": "1 31725U 99025CDY 25351.87871795  .00001348  00000+0  22155-2 0  9993", "line2": "2 31725  99.1801 207.8945 0694457 323.3807  32.1667 12.79203585865471"}}, "geometry": {"type": "Point", "coordinates": [41.671880948366045, 42.39408944465922]}}, {"type": "Feature", "properties": {"norad_id": 31727, "name": "FENGYUN 1C DEB", "group": "fengyun-1c-debris", "lat": 55.72883590313182, "lon": 97.47801885271144, "alt_km": 771.4213363041445, "timestamp": "2025-12-24T07:45:06.483700+00:00", "meta": {"OBJECT_NAME": "FENGYUN 1C DEB", "OBJECT_ID": "1999-025CEA", "EPOCH": "2025-12-22T19:25:58.189728", "MEAN_MOTION": 14.37119426, "ECCENTRICITY": 0.00327118, "INCLINATION": 98.8662, "RA_OF_ASC_NODE": 109.1617, "ARG_OF_PERICENTER": 309.0011, "MEAN_ANOMALY": 202.6819, "EPHEMERIS_TYPE": 0, "CLASSIFICATION_TYPE": "U", "NORAD_CAT_ID": 31727, "ELEMENT_SET_NO": 999, "REV_AT_EPOCH": 71813, "BSTAR": 0.0019103166, "MEAN_MOTION_DOT": 5.668e-05, "MEAN_MOTION_DDOT": 0}, "tle": {"line1": "1 31727U 99025CEA 25356.80970127  .00005668  00000+0  19103-2 0  9990", "line2": "2 31727  98.8662 109.1617 0032711 309.0011 202.6819 14.37119426718130"}}, "geometry": {"type": "Point", "coordinates": [97.47801885271144, 55.72883590313182]}}, {"type": "Feature", "properties": {"norad_id": 31731, "name": "FENGYUN 1C DEB", "group": "fengyun-1c-debris", "lat": 6.982572957105249, "lon": 46.381600090150826, "alt_km": 754.8227845458723, "timestamp": "2025-12-24T07:45:06.483710+00:00", "meta": {"OBJECT_NAME": "FENGYUN 1C DEB", "OBJECT_ID": "1999-025CEE", "EPOCH": "2025-11-27T02:07:07.827456", "MEAN_MOTION": 14.40063792, "ECCENTRICITY": 0.00116613, "INCLINATION": 99.3084, "RA_OF_ASC_NODE": 17.9462, "ARG_OF_PERICENTER": 144.9647, "MEAN_ANOMALY": 215.2308, "EPHEMERIS_TYPE": 0, "CLASSIFICATION_TYPE": "U", "NORAD_CAT_ID": 31731, "ELEMENT_SET_NO": 999, "REV_AT_EPOCH": 95605, "BSTAR": 0.0018623031, "MEAN_MOTION_DOT": 5.831e-05, "MEAN_MOTION_DDOT": 0}, "tle": {"line1": "1 31731U 99025CEE 25331.08828504  .00005831  00000+0  18623-2 0  9997", "line2": "2 31731  99.3084  17.9462 0011661 144.9647 215.2308 14.40063792956051"}}, "geometry": {"type": "Point", "coordinates": [46.381600090150826, 6.982572957105249]}}, {"type": "Feature", "properties": {"norad_id": 31732, "name": "FENGYUN 1C DEB", "group": "fengyun-1c-debris", "lat": -20.991087415374437, "lon": -150.74834385422454, "alt_km": 828.4446130876422, "timestamp": "2025-12-24T07:45:06.483720+00:00", "meta": {"OBJECT_NAME": "FENGYUN 1C DEB", "OBJECT_ID": "1999-025CEF", "EPOCH": "2025-12-20T21:11:00.979872", "MEAN_MOTION": 14.12263162, "ECCENTRICITY": 0.0039959, "INCLINATION": 98.572, "RA_OF_ASC_NODE": 29.2791, "ARG_OF_PERICENTER": 221.8195, "MEAN_ANOMALY": 137.9923, "EPHEMERIS_TYPE": 0, "CLASSIFICATION_TYPE": "U", "NORAD_CAT_ID": 31732, "ELEMENT_SET_NO": 999, "REV_AT_EPOCH": 64445, "BSTAR": 0.00027164, "MEAN_MOTION_DOT": 4.62e-06, "MEAN_MOTION_DDOT": 0}, "tle": {"line1": "1 31732U 99025CEF 25354.88265023  .00000462  00000+0  27164-3 0  9998", "line2": "2 31732  98.5720  29.2791 0039959 221.8195 137.9923 14.12263162644457"}}, "geometry": {"type": "Point", "coordinates": [-150.74834385422454, -20.991087415374437]}}, {"type": "Feature", "properties": {"norad_id": 31734, "name": "FENGYUN 1C DEB", "group": "fengyun-1c-debris", "lat": 79.77353332166778, "lon": -65.7778788045873, "alt_km": 813.203014600268, "timestamp": "2025-12-24T07:45:06.483730+00:00", "meta": {"OBJECT_NAME": "FENGYUN 1C DEB", "OBJECT_ID": "1999-025CEH", "EPOCH": "2025-12-17T05:38:30.357312", "MEAN_MOTION": 14.2902964, "ECCENTRICITY": 0.01035042, "INCLINATION": 98.4953, "RA_OF_ASC_NODE": 343.2584, "ARG_OF_PERICENTER": 354.3593, "MEAN_ANOMALY": 5.6416, "EPHEMERIS_TYPE": 0, "CLASSIFICATION_TYPE": "U", "NORAD_CAT_ID": 31734, "ELEMENT_SET_NO": 999, "REV_AT_EPOCH": 96515, "BSTAR": 0.00042036115, "MEAN_MOTION_DOT": 1.084e-05, "MEAN_MOTION_DDOT": 0}, "tle": {"line1": "1 31734U 99025CEH 25351.23507358  .00001084  00000+0  42036-3 0  9992", "line2": "2 31734  98.4953 343.2584 0103504 354.3593   5.6416 14.29029640965157"}}, "geometry": {"type": "Point", "coordinates": [-65.7778788045873, 79.77353332166778]}}]}